{
    "links": {
        "self": "http://www.neowsapp.com/rest/v1/neo/3655972?api_key=iIulBulltgU6a56xZRHN4H3l9WmuAYTsLGpBGhQ2"
    },
    "id": "3655972",
    "neo_reference_id": "3655972",
    "name": "(2014 AJ51)",
    "designation": "2014 AJ51",
    "nasa_jpl_url": "http://ssd.jpl.nasa.gov/sbdb.cgi?sstr=3655972",
    "absolute_magnitude_h": 24.1,
    "estimated_diameter": {
        "kilometers": {
            "estimated_diameter_min": 0.040230458,
            "estimated_diameter_max": 0.0899580388
        },
        "meters": {
            "estimated_diameter_min": 40.2304579834,
            "estimated_diameter_max": 89.9580388169
        },
        "miles": {
            "estimated_diameter_min": 0.0249980399,
            "estimated_diameter_max": 0.0558973165
        },
        "feet": {
            "estimated_diameter_min": 131.9896957704,
            "estimated_diameter_max": 295.1379320721
        }
    },
    "is_potentially_hazardous_asteroid": false,
    "close_approach_data": [
        {
            "close_approach_date": "2014-01-09",
            "close_approach_date_full": "2014-Jan-09 02:30",
            "epoch_date_close_approach": 1389234600000,
            "relative_velocity": {
                "kilometers_per_second": "10.8806996311",
                "kilometers_per_hour": "39170.5186719892",
                "miles_per_hour": "24339.0370048257"
            },
            "miss_distance": {
                "astronomical": "0.0708729304",
                "lunar": "27.5695699256",
                "kilometers": "10602439.428498248",
                "miles": "6588050.3689139024"
            },
            "orbiting_body": "Earth"
        }
    ],
    "orbital_data": {
        "orbit_id": "7",
        "orbit_determination_date": "2017-04-06 08:42:54",
        "first_observation_date": "2014-01-10",
        "last_observation_date": "2014-01-14",
        "data_arc_in_days": 4,
        "observations_used": 28,
        "orbit_uncertainty": "9",
        "minimum_orbit_intersection": ".0360316",
        "jupiter_tisserand_invariant": "4.091",
        "epoch_osculation": "2456668.5",
        "eccentricity": ".3944098389826911",
        "semi_major_axis": "1.683270373887066",
        "inclination": "16.93841241485367",
        "ascending_node_longitude": "113.5647666897628",
        "orbital_period": "797.6809978366966",
        "perihelion_distance": "1.019371976757934",
        "perihelion_argument": "2.392212311055174",
        "aphelion_distance": "2.347168771016197",
        "perihelion_time": "2456670.183490488089",
        "mean_anomaly": "359.2402268859912",
        "mean_motion": ".4513082309548762",
        "equinox": "J2000",
        "orbit_class": {
            "orbit_class_type": "AMO",
            "orbit_class_description": "Near-Earth asteroid orbits similar to that of 1221 Amor",
            "orbit_class_range": "1.017 AU < q (perihelion) < 1.3 AU"
        }
    },
    "is_sentry_object": false
}